[{"OBJECT_NAME":"ONEWEB-0102","OBJECT_ID":"2020-100A","EPOCH":"2026-03-09T20:57:22.472064","MEAN_MOTION":13.12443626,"ECCENTRICITY":0.00018552,"INCLINATION":87.8996,"RA_OF_ASC_NODE":10.3932,"ARG_OF_PERICENTER":87.529,"MEAN_ANOMALY":272.6051,"EPHEMERIS_TYPE":0,"CLASSIFICATION_TYPE":"U","NORAD_CAT_ID":47258,"ELEMENT_SET_NO":999,"REV_AT_EPOCH":25170,"BSTAR":-0.00065315668,"MEAN_MOTION_DOT":-2.22e-6,"MEAN_MOTION_DDOT":0},{"OBJECT_NAME":"COSMOS 1275 DEB","OBJECT_ID":"1981-053ML","EPOCH":"2026-03-09T03:45:44.654976","MEAN_MOTION":13.4331041,"ECCENTRICITY":0.01699711,"INCLINATION":82.895,"RA_OF_ASC_NODE":139.7955,"ARG_OF_PERICENTER":296.9814,"MEAN_ANOMALY":89.9811,"EPHEMERIS_TYPE":0,"CLASSIFICATION_TYPE":"U","NORAD_CAT_ID":20100,"ELEMENT_SET_NO":999,"REV_AT_EPOCH":84168,"BSTAR":0.00014430098,"MEAN_MOTION_DOT":1.02e-6,"MEAN_MOTION_DDOT":0}]
